$$SOE
2460721.500000000, A.D. 2025-Feb-15 00:00:00.0000, 1.953272263839868E+07, 3.041637312306358E+08, 4.735338966815583E+07,
2460728.500000000, A.D. 2025-Feb-22 00:00:00.0000, 6.596323517067572E+06, 3.058729358952622E+08, 4.675134647553371E+07,
2460735.500000000, A.D. 2025-Mar-01 00:00:00.0000, -6.350870977561654E+06, 3.070814818777315E+08, 4.607273472250070E+07,
2460742.500000000, A.D. 2025-Mar-08 00:00:00.0000, -1.928776760936789E+07, 3.077926512367800E+08, 4.531945515090239E+07,
2460749.500000000, A.D. 2025-Mar-15 00:00:00.0000, -3.219373883523179E+07, 3.080106688400264E+08, 4.449352015986671E+07,
2460756.500000000, A.D. 2025-Mar-22 00:00:00.0000, -4.504866843828536E+07, 3.077406541650829E+08, 4.359704378646484E+07,
2460763.500000000, A.D. 2025-Mar-29 00:00:00.0000, -5.783299077064724E+07, 3.069885693255773E+08, 4.263223147869830E+07,
2460770.500000000, A.D. 2025-Apr-05 00:00:00.0000, -7.052772336478375E+07, 3.057611669679080E+08, 4.160136996041155E+07,
2460777.500000000, A.D. 2025-Apr-12 00:00:00.0000, -8.311449495851600E+07, 3.040659386107696E+08, 4.050681743528871E+07,
2460784.500000000, A.D. 2025-Apr-19 00:00:00.0000, -9.557556928482957E+07, 3.019110629697225E+08, 3.935099412802975E+07,
2460791.500000000, A.D. 2025-Apr-26 00:00:00.0000, -1.078938645553744E+08, 2.993053544524265E+08, 3.813637316711111E+07,
2460798.500000000, A.D. 2025-May-03 00:00:00.0000, -1.200529687516291E+08, 2.962582121948798E+08, 3.686547183864862E+07,
2460805.500000000, A.D. 2025-May-10 00:00:00.0000, -1.320371509437907E+08, 2.927795699587161E+08, 3.554084324028417E+07,
2460812.500000000, A.D. 2025-May-17 00:00:00.0000, -1.438313688647852E+08, 2.888798471199027E+08, 3.416506835204722E+07,
2460819.500000000, A.D. 2025-May-24 00:00:00.0000, -1.554212728398722E+08, 2.845699009263989E+08, 3.274074852080567E+07,
2460826.500000000, A.D. 2025-May-31 00:00:00.0000, -1.667932059344166E+08, 2.798609805297471E+08, 3.127049835636204E+07,
2460833.500000000, A.D. 2025-Jun-07 00:00:00.0000, -1.779342010045775E+08, 2.747646841550143E+08, 2.975693918013483E+07,
2460840.500000000, A.D. 2025-Jun-14 00:00:00.0000, -1.888319772971068E+08, 2.692929188737729E+08, 2.820269318970627E+07,
2460847.500000000, A.D. 2025-Jun-21 00:00:00.0000, -1.994749356477623E+08, 2.634578598046723E+08, 2.661037795572773E+07,
2460854.500000000, A.D. 2025-Jun-28 00:00:00.0000, -2.098521494114002E+08, 2.572719105609123E+08, 2.498260110023043E+07,
2460861.500000000, A.D. 2025-Jul-05 00:00:00.0000, -2.199533529041541E+08, 2.507476671428008E+08, 2.332195546177821E+07,
2460868.500000000, A.D. 2025-Jul-12 00:00:00.0000, -2.297689287926369E+08, 2.438978844954967E+08, 2.163101477766541E+07,
2460875.500000000, A.D. 2025-Jul-19 00:00:00.0000, -2.392898944665958E+08, 2.367354451545186E+08, 1.991232980281208E+07,
2460882.500000000, A.D. 2025-Jul-26 00:00:00.0000, -2.485078873989764E+08, 2.292733299006595E+08, 1.816842482400146E+07,
2460889.500000000, A.D. 2025-Aug-02 00:00:00.0000, -2.574151496281505E+08, 2.215245904100929E+08, 1.640179454659511E+07,
2460896.500000000, A.D. 2025-Aug-09 00:00:00.0000, -2.660045115239776E+08, 2.135023238369852E+08, 1.461490133086382E+07,
2460903.500000000, A.D. 2025-Aug-16 00:00:00.0000, -2.742693749305558E+08, 2.052196492068242E+08, 1.281017274561898E+07,
2460910.500000000, A.D. 2025-Aug-23 00:00:00.0000, -2.822036955476535E+08, 1.966896855695093E+08, 1.098999939330101E+07,
2460917.500000000, A.D. 2025-Aug-30 00:00:00.0000, -2.898019643619905E+08, 1.879255325512632E+08, 9.156733014351830E+06,
2460924.500000000, A.D. 2025-Sep-06 00:00:00.0000, -2.970591896748796E+08, 1.789402542253003E+08, 7.312685062455259E+06,
2460931.500000000, A.D. 2025-Sep-13 00:00:00.0000, -3.039708815152246E+08, 1.697468637379527E+08, 5.460125680769935E+06,
2460938.500000000, A.D. 2025-Sep-20 00:00:00.0000, -3.105330352636413E+08, 1.603583069646813E+08, 3.601282624892645E+06,
2460945.500000000, A.D. 2025-Sep-27 00:00:00.0000, -3.167421135114725E+08, 1.507874482167426E+08, 1.738340271197133E+06,
2460952.500000000, A.D. 2025-Oct-04 00:00:00.0000, -3.225950282533757E+08, 1.410470584475905E+08, -1.265610789264292E+05,
2460959.500000000, A.D. 2025-Oct-11 00:00:00.0000, -3.280891238594256E+08, 1.311498049351157E+08, -1.991325660121821E+06,
2460966.500000000, A.D. 2025-Oct-18 00:00:00.0000, -3.332221605971176E+08, 1.211082420854535E+08, -3.853902535034001E+06,
2460973.500000000, A.D. 2025-Oct-25 00:00:00.0000, -3.379922986041247E+08, 1.109348032867024E+08, -5.712285744691685E+06,
2460980.500000000, A.D. 2025-Nov-01 00:00:00.0000, -3.423980823048331E+08, 1.006417937427066E+08, -7.564514333671845E+06,
2460987.500000000, A.D. 2025-Nov-08 00:00:00.0000, -3.464384252667367E+08, 9.024138416965127E+07, -9.408672268795643E+06,
2460994.500000000, A.D. 2025-Nov-15 00:00:00.0000, -3.501125953805788E+08, 7.974560521582660E+07, -1.124288828265167E+07,
2461001.500000000, A.D. 2025-Nov-22 00:00:00.0000, -3.534201999908479E+08, 6.916634275219300E+07, -1.306533567404575E+07,
2461008.500000000, A.D. 2025-Nov-29 00:00:00.0000, -3.563611711511618E+08, 5.851533510331099E+07, -1.487423197129407E+07,
2461015.500000000, A.D. 2025-Dec-06 00:00:00.0000, -3.589357532955524E+08, 4.780417202000675E+07, -1.666783827245684E+07,
2461022.500000000, A.D. 2025-Dec-13 00:00:00.0000, -3.611444929018377E+08, 3.704429196384946E+07, -1.844445858882999E+07,
2461029.500000000, A.D. 2025-Dec-20 00:00:00.0000, -3.629882266556531E+08, 2.624697867159142E+07, -2.020243943786431E+07,
2461036.500000000, A.D. 2025-Dec-27 00:00:00.0000, -3.644680691814650E+08, 1.542335953502777E+07, -2.194016938263946E+07,
2461043.500000000, A.D. 2026-Jan-03 00:00:00.0000, -3.655854017946770E+08, 4.584405123852338E+06, -2.365607844179291E+07,
2461050.500000000, A.D. 2026-Jan-10 00:00:00.0000, -3.663418621633889E+08, -6.259070878356146E+06, -2.534863744319387E+07,
2461057.500000000, A.D. 2026-Jan-17 00:00:00.0000, -3.667393346423542E+08, -1.709641146167881E+07, -2.701635735701255E+07,
2461064.500000000, A.D. 2026-Jan-24 00:00:00.0000, -3.667799411926265E+08, -2.791711582067847E+07, -2.865778861935303E+07,
2461071.500000000, A.D. 2026-Jan-31 00:00:00.0000, -3.664660328533205E+08, -3.871083867621583E+07, -3.027152045454100E+07,
2461078.500000000, A.D. 2026-Feb-07 00:00:00.0000, -3.658001816931354E+08, -4.946738948343439E+07, -3.185618021133550E+07,
2461085.500000000, A.D. 2026-Feb-14 00:00:00.0000, -3.647851729770613E+08, -6.017673157643799E+07, -3.341043274207612E+07,
2461092.500000000, A.D. 2026-Feb-21 00:00:00.0000, -3.634239971482241E+08, -7.082898070542260E+07, -3.493297981725480E+07,
2461099.500000000, A.D. 2026-Feb-28 00:00:00.0000, -3.617198426961097E+08, -8.141440184385496E+07, -3.642255938544311E+07,
2461106.500000000, A.D. 2026-Mar-07 00:00:00.0000, -3.596760919570400E+08, -9.192340624621731E+07, -3.787794465296153E+07,
2461113.500000000, A.D. 2026-Mar-14 00:00:00.0000, -3.572963170617587E+08, -1.023465511173891E+08, -3.929794343276767E+07,
2461120.500000000, A.D. 2026-Mar-21 00:00:00.0000, -3.545842742362245E+08, -1.126745390187744E+08, -4.068139769254404E+07,
2461127.500000000, A.D. 2026-Mar-28 00:00:00.0000, -3.515438984487954E+08, -1.228982160031850E+08, -4.202718303537539E+07,
2461134.500000000, A.D. 2026-Apr-04 00:00:00.0000, -3.481792989906842E+08, -1.330085694660824E+08, -4.333420813820253E+07,
2461141.500000000, A.D. 2026-Apr-11 00:00:00.0000, -3.444947557016238E+08, -1.429967260947808E+08, -4.460141420467071E+07,
2461148.500000000, A.D. 2026-Apr-18 00:00:00.0000, -3.404947156678324E+08, -1.528539499416698E+08, -4.582777444918446E+07,
2461155.500000000, A.D. 2026-Apr-25 00:00:00.0000, -3.361837903314735E+08, -1.625716406250911E+08, -4.701229361612350E+07,
2461162.500000000, A.D. 2026-May-02 00:00:00.0000, -3.315667529657321E+08, -1.721413317063454E+08, -4.815400754034624E+07,
2461169.500000000, A.D. 2026-May-09 00:00:00.0000, -3.266485363771973E+08, -1.815546893282525E+08, -4.925198276721440E+07,
2461176.500000000, A.D. 2026-May-16 00:00:00.0000, -3.214342304457982E+08, -1.908035109953211E+08, -5.030531625745075E+07,
2461183.500000000, A.D. 2026-May-23 00:00:00.0000, -3.159290794395652E+08, -1.998797234897400E+08, -5.131313510016543E+07,
2461190.500000000, A.D. 2026-May-30 00:00:00.0000, -3.101384811712489E+08, -2.087753796187714E+08, -5.227459601933873E+07,
2461197.500000000, A.D. 2026-Jun-06 00:00:00.0000, -3.040679883032703E+08, -2.174826570828735E+08, -5.318888491460715E+07,
2461204.500000000, A.D. 2026-Jun-13 00:00:00.0000, -2.977233081267896E+08, -2.259938592814998E+08, -5.405521675924800E+07,
2461211.500000000, A.D. 2026-Jun-20 00:00:00.0000, -2.911103013074905E+08, -2.343014151435276E+08, -5.487283557250248E+07,
2461218.500000000, A.D. 2026-Jun-27 00:00:00.0000, -2.842349812855685E+08, -2.423978783330955E+08, -5.564101433945164E+07,
2461225.500000000, A.D. 2026-Jul-04 00:00:00.0000, -2.771035143177440E+08, -2.502759266165599E+08, -5.635905494258863E+07,
2461232.500000000, A.D. 2026-Jul-11 00:00:00.0000, -2.697222198949792E+08, -2.579283615336114E+08, -5.702628813986033E+07,
2461239.500000000, A.D. 2026-Jul-18 00:00:00.0000, -2.620975714302880E+08, -2.653481083575836E+08, -5.764207359578288E+07,
2461246.500000000, A.D. 2026-Jul-25 00:00:00.0000, -2.542361971774429E+08, -2.725282163536170E+08, -5.820579996739642E+07,
2461253.500000000, A.D. 2026-Aug-01 00:00:00.0000, -2.461448813169442E+08, -2.794618593972600E+08, -5.871688505392568E+07,
2461260.500000000, A.D. 2026-Aug-08 00:00:00.0000, -2.378305649812263E+08, -2.861423370071689E+08, -5.917477603506172E+07,
2461267.500000000, A.D. 2026-Aug-15 00:00:00.0000, -2.293003467945618E+08, -2.925630753596656E+08, -5.957894980249789E+07,
2461274.500000000, A.D. 2026-Aug-22 00:00:00.0000, -2.205614836804368E+08, -2.987176270793105E+08, -5.992891321798676E+07,
2461281.500000000, A.D. 2026-Aug-29 00:00:00.0000, -2.116213942149764E+08, -3.045996711912117E+08, -6.022420320184857E+07,
$$EOE